{"type": "FeatureCollection", "features": [{"type": "Feature", "properties": {"norad_id": 24876, "name": "GPS BIIR-2  (PRN 13)", "group": "gnss", "lat": 40.32026965836949, "lon": -109.11711358746712, "alt_km": 20094.229508413464, "timestamp": "2025-12-10T09:57:44.941460+00:00", "meta": {"OBJECT_NAME": "GPS BIIR-2  (PRN 13)", "OBJECT_ID": "1997-035A", "EPOCH": "2025-12-09T17:47:19.153824", "MEAN_MOTION": 2.00563565, "ECCENTRICITY": 0.0096748, "INCLINATION": 55.8939, "RA_OF_ASC_NODE": 105.9862, "ARG_OF_PERICENTER": 57.0132, "MEAN_ANOMALY": 303.8899, "EPHEMERIS_TYPE": 0, "CLASSIFICATION_TYPE": "U", "NORAD_CAT_ID": 24876, "ELEMENT_SET_NO": 999, "REV_AT_EPOCH": 20815, "BSTAR": 0, "MEAN_MOTION_DOT": 2.2e-07, "MEAN_MOTION_DDOT": 0}, "tle": {"line1": "1 24876U 97035A   25343.74119391  .00000022  00000+0  00000+0 0  9995", "line2": "2 24876  55.8939 105.9862 0096748  57.0132 303.8899  2.00563565208159"}}, "geometry": {"type": "Point", "coordinates": [-109.11711358746712, 40.32026965836949]}}, {"type": "Feature", "properties": {"norad_id": 26360, "name": "GPS BIIR-4  (PRN 20)", "group": "gnss", "lat": -31.223366916235484, "lon": -127.97858978222477, "alt_km": 20090.221556509303, "timestamp": "2025-12-10T09:57:44.941506+00:00", "meta": {"OBJECT_NAME": "GPS BIIR-4  (PRN 20)", "OBJECT_ID": "2000-025A", "EPOCH": "2025-12-10T02:56:33.389088", "MEAN_MOTION": 2.00567859, "ECCENTRICITY": 0.0038854, "INCLINATION": 55.0436, "RA_OF_ASC_NODE": 26.9437, "ARG_OF_PERICENTER": 241.7395, "MEAN_ANOMALY": 126.4699, "EPHEMERIS_TYPE": 0, "CLASSIFICATION_TYPE": "U", "NORAD_CAT_ID": 26360, "ELEMENT_SET_NO": 999, "REV_AT_EPOCH": 18748, "BSTAR": 0, "MEAN_MOTION_DOT": -9.6e-07, "MEAN_MOTION_DDOT": 0}, "tle": {"line1": "1 26360U 00025A   25344.12260867 -.00000096  00000+0  00000+0 0  9998", "line2": "2 26360  55.0436  26.9437 0038854 241.7395 126.4699  2.00567859187489"}}, "geometry": {"type": "Point", "coordinates": [-127.97858978222477, -31.223366916235484]}}, {"type": "Feature", "properties": {"norad_id": 26407, "name": "GPS BIIR-5  (PRN 22)", "group": "gnss", "lat": 45.237060701226774, "lon": -92.18980656770825, "alt_km": 20332.42365906978, "timestamp": "2025-12-10T09:57:44.941524+00:00", "meta": {"OBJECT_NAME": "GPS BIIR-5  (PRN 22)", "OBJECT_ID": "2000-040A", "EPOCH": "2025-12-09T20:17:06.583776", "MEAN_MOTION": 2.00567874, "ECCENTRICITY": 0.0126172, "INCLINATION": 54.8914, "RA_OF_ASC_NODE": 222.6841, "ARG_OF_PERICENTER": 301.7549, "MEAN_ANOMALY": 65.7518, "EPHEMERIS_TYPE": 0, "CLASSIFICATION_TYPE": "U", "NORAD_CAT_ID": 26407, "ELEMENT_SET_NO": 999, "REV_AT_EPOCH": 18615, "BSTAR": 0, "MEAN_MOTION_DOT": 2e-08, "MEAN_MOTION_DDOT": 0}, "tle": {"line1": "1 26407U 00040A   25343.84521509  .00000002  00000+0  00000+0 0  9994", "line2": "2 26407  54.8914 222.6841 0126172 301.7549  65.7518  2.00567874186157"}}, "geometry": {"type": "Point", "coordinates": [-92.18980656770825, 45.237060701226774]}}, {"type": "Feature", "properties": {"norad_id": 27663, "name": "GPS BIIR-8  (PRN 16)", "group": "gnss", "lat": -12.90755877378667, "lon": 51.73902888139808, "alt_km": 20498.585546321494, "timestamp": "2025-12-10T09:57:44.941539+00:00", "meta": {"OBJECT_NAME": "GPS BIIR-8  (PRN 16)", "OBJECT_ID": "2003-005A", "EPOCH": "2025-12-09T15:52:30.360000", "MEAN_MOTION": 2.00571029, "ECCENTRICITY": 0.0147333, "INCLINATION": 54.924, "RA_OF_ASC_NODE": 222.5008, "ARG_OF_PERICENTER": 51.758, "MEAN_ANOMALY": 318.9168, "EPHEMERIS_TYPE": 0, "CLASSIFICATION_TYPE": "U", "NORAD_CAT_ID": 27663, "ELEMENT_SET_NO": 999, "REV_AT_EPOCH": 16751, "BSTAR": 0, "MEAN_MOTION_DOT": 3e-08, "MEAN_MOTION_DDOT": 0}, "tle": {"line1": "1 27663U 03005A   25343.66146250  .00000003  00000+0  00000+0 0  9990", "line2": "2 27663  54.9240 222.5008 0147333  51.7580 318.9168  2.00571029167518"}}, "geometry": {"type": "Point", "coordinates": [51.73902888139808, -12.90755877378667]}}, {"type": "Feature", "properties": {"norad_id": 28190, "name": "GPS BIIR-11 (PRN 19)", "group": "gnss", "lat": -5.2837837343661365, "lon": -80.41457322649957, "alt_km": 20469.761117941696, "timestamp": "2025-12-10T09:57:44.941554+00:00", "meta": {"OBJECT_NAME": "GPS BIIR-11 (PRN 19)", "OBJECT_ID": "2004-009A", "EPOCH": "2025-12-09T02:41:41.936352", "MEAN_MOTION": 2.00560834, "ECCENTRICITY": 0.01083049, "INCLINATION": 54.989, "RA_OF_ASC_NODE": 283.3651, "ARG_OF_PERICENTER": 167.5856, "MEAN_ANOMALY": 325.415, "EPHEMERIS_TYPE": 0, "CLASSIFICATION_TYPE": "U", "NORAD_CAT_ID": 28190, "ELEMENT_SET_NO": 999, "REV_AT_EPOCH": 15913, "BSTAR": 0, "MEAN_MOTION_DOT": -5.3e-07, "MEAN_MOTION_DDOT": 0}, "tle": {"line1": "1 28190U 04009A   25343.11229093 -.00000053  00000+0  00000+0 0  9994", "line2": "2 28190  54.9890 283.3651 0108304 167.5856 325.4150  2.00560834159136"}}, "geometry": {"type": "Point", "coordinates": [-80.41457322649957, -5.2837837343661365]}}, {"type": "Feature", "properties": {"norad_id": 28474, "name": "GPS BIIR-13 (PRN 02)", "group": "gnss", "lat": 42.679708721712764, "lon": 12.295055480490108, "alt_km": 20298.966799498397, "timestamp": "2025-12-10T09:57:44.941567+00:00", "meta": {"OBJECT_NAME": "GPS BIIR-13 (PRN 02)", "OBJECT_ID": "2004-045A", "EPOCH": "2025-12-09T12:22:18.068160", "MEAN_MOTION": 2.00569281, "ECCENTRICITY": 0.01706994, "INCLINATION": 55.2423, "RA_OF_ASC_NODE": 332.5354, "ARG_OF_PERICENTER": 309.1094, "MEAN_ANOMALY": 175.0293, "EPHEMERIS_TYPE": 0, "CLASSIFICATION_TYPE": "U", "NORAD_CAT_ID": 28474, "ELEMENT_SET_NO": 999, "REV_AT_EPOCH": 15462, "BSTAR": 0, "MEAN_MOTION_DOT": -8.4e-07, "MEAN_MOTION_DDOT": 0}, "tle": {"line1": "1 28474U 04045A   25343.51548690 -.00000084  00000+0  00000+0 0  9994", "line2": "2 28474  55.2423 332.5354 0170699 309.1094 175.0293  2.00569281154629"}}, "geometry": {"type": "Point", "coordinates": [12.295055480490108, 42.679708721712764]}}, {"type": "Feature", "properties": {"norad_id": 28874, "name": "GPS BIIRM-1 (PRN 17)", "group": "gnss", "lat": 11.441699713045022, "lon": -71.08736981187889, "alt_km": 20117.527633630893, "timestamp": "2025-12-10T09:57:44.941581+00:00", "meta": {"OBJECT_NAME": "GPS BIIRM-1 (PRN 17)", "OBJECT_ID": "2005-038A", "EPOCH": "2025-12-09T01:52:55.801632", "MEAN_MOTION": 2.0057855, "ECCENTRICITY": 0.01317498, "INCLINATION": 55.0352, "RA_OF_ASC_NODE": 280.8483, "ARG_OF_PERICENTER": 293.4065, "MEAN_ANOMALY": 193.8993, "EPHEMERIS_TYPE": 0, "CLASSIFICATION_TYPE": "U", "NORAD_CAT_ID": 28874, "ELEMENT_SET_NO": 999, "REV_AT_EPOCH": 14802, "BSTAR": 0, "MEAN_MOTION_DOT": -5e-07, "MEAN_MOTION_DDOT": 0}, "tle": {"line1": "1 28874U 05038A   25343.07842363 -.00000050  00000+0  00000+0 0  9999", "line2": "2 28874  55.0352 280.8483 0131749 293.4065 193.8993  2.00578550148027"}}, "geometry": {"type": "Point", "coordinates": [-71.08736981187889, 11.441699713045022]}}, {"type": "Feature", "properties": {"norad_id": 28899, "name": "INMARSAT 4-F2 (SOUTHPAN/PRN 122)", "group": "gnss", "lat": -2.510687942338631, "lon": 12.479129440709972, "alt_km": 35792.0032889352, "timestamp": "2025-12-10T09:57:44.941595+00:00", "meta": {"OBJECT_NAME": "INMARSAT 4-F2 (SOUTHPAN/PRN 122)", "OBJECT_ID": "2005-044A", "EPOCH": "2025-12-09T12:32:28.611168", "MEAN_MOTION": 1.00277374, "ECCENTRICITY": 0.0003089, "INCLINATION": 4.8484, "RA_OF_ASC_NODE": 43.6799, "ARG_OF_PERICENTER": 205.8718, "MEAN_ANOMALY": 160.592, "EPHEMERIS_TYPE": 0, "CLASSIFICATION_TYPE": "U", "NORAD_CAT_ID": 28899, "ELEMENT_SET_NO": 999, "REV_AT_EPOCH": 7362, "BSTAR": 0, "MEAN_MOTION_DOT": -2.58e-06, "MEAN_MOTION_DDOT": 0}, "tle": {"line1": "1 28899U 05044A   25343.52255337 -.00000258  00000+0  00000+0 0  9992", "line2": "2 28899   4.8484  43.6799 0003089 205.8718 160.5920  1.00277374 73627"}}, "geometry": {"type": "Point", "coordinates": [12.479129440709972, -2.510687942338631]}}, {"type": "Feature", "properties": {"norad_id": 29486, "name": "GPS BIIRM-2 (PRN 31)", "group": "gnss", "lat": -54.35946132074844, "lon": 77.47148097509412, "alt_km": 20395.593850554276, "timestamp": "2025-12-10T09:57:44.941609+00:00", "meta": {"OBJECT_NAME": "GPS BIIRM-2 (PRN 31)", "OBJECT_ID": "2006-042A", "EPOCH": "2025-12-09T13:14:35.270304", "MEAN_MOTION": 2.00554233, "ECCENTRICITY": 0.0107363, "INCLINATION": 54.6937, "RA_OF_ASC_NODE": 158.8672, "ARG_OF_PERICENTER": 51.886, "MEAN_ANOMALY": 320.6455, "EPHEMERIS_TYPE": 0, "CLASSIFICATION_TYPE": "U", "NORAD_CAT_ID": 29486, "ELEMENT_SET_NO": 999, "REV_AT_EPOCH": 14059, "BSTAR": 0, "MEAN_MOTION_DOT": 6.7e-07, "MEAN_MOTION_DDOT": 0}, "tle": {"line1": "1 29486U 06042A   25343.55179711  .00000067  00000+0  00000+0 0  9995", "line2": "2 29486  54.6937 158.8672 0107363  51.8860 320.6455  2.00554233140598"}}, "geometry": {"type": "Point", "coordinates": [77.47148097509412, -54.35946132074844]}}, {"type": "Feature", "properties": {"norad_id": 29601, "name": "GPS BIIRM-3 (PRN 12)", "group": "gnss", "lat": -22.32018910965533, "lon": -155.225207630739, "alt_km": 20281.076125702442, "timestamp": "2025-12-10T09:57:44.941621+00:00", "meta": {"OBJECT_NAME": "GPS BIIRM-3 (PRN 12)", "OBJECT_ID": "2006-052A", "EPOCH": "2025-12-08T22:59:17.672352", "MEAN_MOTION": 2.00573222, "ECCENTRICITY": 0.0087721, "INCLINATION": 54.9712, "RA_OF_ASC_NODE": 221.5484, "ARG_OF_PERICENTER": 87.3994, "MEAN_ANOMALY": 273.6864, "EPHEMERIS_TYPE": 0, "CLASSIFICATION_TYPE": "U", "NORAD_CAT_ID": 29601, "ELEMENT_SET_NO": 999, "REV_AT_EPOCH": 13959, "BSTAR": 0, "MEAN_MOTION_DOT": 1e-07, "MEAN_MOTION_DDOT": 0}, "tle": {"line1": "1 29601U 06052A   25342.95784343  .00000010  00000+0  00000+0 0  9999", "line2": "2 29601  54.9712 221.5484 0087721  87.3994 273.6864  2.00573222139595"}}, "geometry": {"type": "Point", "coordinates": [-155.225207630739, -22.32018910965533]}}]}